cds_code,name,district,street,city,county,zipcode,is_charter,funding_type,latitude,longitude,ownership,instructional_level,grades_served,low_grade_served,high_grade_served
19101990106880,Jardin de la Infancia,Los Angeles County Office of Education,307 East Seventh St.,Los Angeles,Los Angeles,90014-2209,Y,Directly funded,34.04246,-118.24911999999999,Elementary Schools (Public),ELEM,K-1,K,1
19101990109660,Aspire Antonio Maria Lugo Academy,Los Angeles County Office of Education,6100 Carmelita Ave.,Huntington Park,Los Angeles,90255-4138,Y,Directly funded,33.984203,-118.19658999999999,Elementary Schools (Public),ELEM,K-5,K,5
19101990109942,Los Angeles International Charter High,Los Angeles County Office of Education,625 Coleman Ave.,Los Angeles,Los Angeles,90042-4903,Y,Directly funded,34.102359,-118.18336000000001,High Schools (Public),HS,9-12,9,12
19101990112128,Aspire Ollin University Preparatory Academy,Los Angeles County Office of Education,2540 East 58th St.,Huntington Park,Los Angeles,90255-2659,Y,Directly funded,33.990154,-118.22653000000001,K-12 Schools (Public),HS,7-12,7,12
19101990115030,Magnolia Science Academy 3,Los Angeles County Office of Education,1254 East Helmick St.,Carson,Los Angeles,90746-3164,Y,Directly funded,33.851607,-118.24956999999999,K-12 Schools (Public),ELEMHIGH,6-12,6,12
19101990115212,Magnolia Science Academy 2,Los Angeles County Office of Education,17125 Victory Blvd.,Van Nuys,Los Angeles,91406-5455,Y,Directly funded,34.186690000000006,-118.50542,K-12 Schools (Public),ELEMHIGH,6-12,6,12
19101990121772,Environmental Charter Middle,Los Angeles County Office of Education,812 West 165th Pl.,Gardena,Los Angeles,90247-5105,Y,Directly funded,33.880446,-118.28957,Intermediate/Middle Schools (Public),INTMIDJR,6-8,6,8
19101990127498,Environmental Charter Middle - Inglewood,Los Angeles County Office of Education,3600 West Imperial Hwy.,Inglewood,Los Angeles,90303-2714,Y,Directly funded,33.930642,-118.33588999999999,Intermediate/Middle Schools (Public),INTMIDJR,6-8,6,8
19101990127522,Optimist Charter,Los Angeles County Office of Education,6957 North Figueroa St.,Los Angeles,Los Angeles,90042-1245,Y,Directly funded,34.128523,-118.18775,High Schools (Public),HS,8-12,8,12
19101990132605,Valiente College Preparatory Charter,Los Angeles County Office of Education,8691 California Ave.,South Gate,Los Angeles,90280-3003,Y,Directly funded,33.954987,-118.20666999999999,Intermediate/Middle Schools (Public),ELEM,4-6,4,6
19101990134346,Intellectual Virtues Academy,Los Angeles County Office of Education,1637 Long Beach Blvd.,Long Beach,Los Angeles,90813-4001,Y,Directly funded,33.787915999999996,-118.18982,High Schools (Public),HS,9,9,
19101990134361,LA's Promise Charter Middle #1,Los Angeles County Office of Education,4920 South Western Ave.,Los Angeles,Los Angeles,90062-2347,Y,Directly funded,33.998537,-118.30871,Intermediate/Middle Schools (Public),ELEM,6,6,
19101990135368,Alma Fuerte Public,Los Angeles County Office of Education,119 West Palm St.,Altadena,Los Angeles,91001-4375,Y,Directly funded,34.197588,-118.1485,Elementary Schools (Public),ELEM,,,
19101990135582,LA's Promise Charter High #1,Los Angeles County Office of Education,1755 West 52nd St.,Los Angeles,Los Angeles,90062-2347,Y,Directly funded,33.995340999999996,-118.30851000000001,High Schools (Public),HS,,,
19101990136119,Animo City of Champions Charter High,Los Angeles County Office of Education,9330 South Eighth Ave.,Inglewood,Los Angeles,90305-2914,Y,Directly funded,33.951586,-118.32505,High Schools (Public),HS,,,
19101991996008,Soledad Enrichment Action Charter High,Los Angeles County Office of Education,222 North Virgil Ave.,Los Angeles,Los Angeles,90004-3622,Y,Locally funded,34.075643,-118.28681999999999,County Community,HS,9-12,9,12
19101996116883,Odyssey Charter,Los Angeles County Office of Education,725 West Altadena Dr.,Altadena,Los Angeles,91001-4103,Y,Directly funded,34.199346000000006,-118.16211000000001,Elementary Schools (Public),ELEM,K-8,K,8
19101996119945,Magnolia Science Academy,Los Angeles County Office of Education,18238 Sherman Way,Reseda,Los Angeles,91335-4550,Y,Directly funded,34.201083000000004,-118.53053999999999,K-12 Schools (Public),ELEMHIGH,6-12,6,12
19642460126003,Academies of the Antelope Valley,Antelope Valley Union High,6300 West Avenue L,Quartz Hill,Los Angeles,93536-4540,Y,Locally funded,34.660140000000006,-118.24103999999998,High Schools (Public),HS,7-12,7,12
19642461996537,Desert Sands Charter,Antelope Valley Union High,44130 20th St. West,Lancaster,Los Angeles,93534-4045,Y,Directly funded,34.684768,-118.16417,High Schools (Public),HS,9-12,9,12
19642870114397,Opportunities For Learning - Baldwin Park II,Baldwin Park Unified,320 North Halstead St. Ste. 220,Pasadena,Los Angeles,91107-3147,Y,Directly funded,34.152079,-118.07903,High Schools (Public),HS,7-12,7,12
19642871996479,Opportunities for Learning - Baldwin Park,Baldwin Park Unified,320 North Halstead St. Ste. 220,Pasadena,Los Angeles,91107-3147,Y,Directly funded,34.152079,-118.07903,K-12 Schools (Public),HS,7-12,7,12
19643520128488,Family First Charter,Centinela Valley Union High,4953 Marine Ave.,Lawndale,Los Angeles,90260-1250,Y,Directly funded,33.894642,-118.3657,High Schools (Public),HS,9-12,9,12
19643520128496,New Opportunities Charter,Centinela Valley Union High,110 South La Brea Ave. Ste. 305A,Inglewood,Los Angeles,90301-1768,Y,Directly funded,33.962811,-118.35276999999999,High Schools (Public),HS,9-12,9,12
19644690128736,Opportunities for Learning - Duarte,Duarte Unified,806 Huntington Dr.,Monrovia,Los Angeles,91016-3616,Y,Directly funded,34.140182,-118.0173,High Schools (Public),HS,7-12,7,12
19644690134858,California School of the Arts - San Gabriel Valley,Duarte Unified,1401 Highland Ave.,Duarte,Los Angeles,91010-2523,Y,Directly funded,34.136932,-117.96885,High Schools (Public),HS,,,
19645841996305,Gorman Learning Center,Gorman Joint,1826 Orange Tree Ln.,Redlands,Los Angeles,92374-2821,Y,Directly funded,34.067809999999994,-117.217,K-12 Schools (Public),ELEMHIGH,K-12,K,12
19645920100354,Hawthorne Math and Science Academy,Hawthorne,4467 West Broadway,Hawthorne,Los Angeles,90250-3819,Y,Locally funded,33.920043,-118.35406,High Schools (Public),HS,9-12,9,12
19646340101667,Wilder's Preparatory Academy Charter,Inglewood Unified,830 North La Brea Ave.,Inglewood,Los Angeles,90302-2206,Y,Directly funded,33.974312,-118.35765,Elementary Schools (Public),ELEM,K-5,K,5
19646340116822,Wilder's Preparatory Academy Charter Middle,Inglewood Unified,830 North La Brea Ave.,Inglewood,Los Angeles,90302-2206,Y,Directly funded,33.974312,-118.35765,Intermediate/Middle Schools (Public),INTMIDJR,6-8,6,8
19646340119552,Today's Fresh Start Charter School Inglewood,Inglewood Unified,3405 West Imperial Hwy.,Inglewood,Los Angeles,90303-2219,Y,Directly funded,33.930960999999996,-118.33209,Elementary Schools (Public),ELEM,K-7,K,7
19646340120303,ICEF Inglewood Elementary Charter Academy,Inglewood Unified,434 South Grevillea Ave.,Inglewood,Los Angeles,90301-2300,Y,Directly funded,33.958058,-118.35491999999999,Elementary Schools (Public),ELEM,K-5,K,5
19646340120311,ICEF Inglewood Middle Charter Academy,Inglewood Unified,304 East Spruce Ave.,Inglewood,Los Angeles,90301-2711,Y,Directly funded,33.958349,-118.34983999999999,Intermediate/Middle Schools (Public),INTMIDJR,6-8,6,8
19646340121186,Children of Promise Preparatory Academy,Inglewood Unified,3130 West 111th Pl.,Inglewood,Los Angeles,90303-2315,Y,Directly funded,33.933822,-118.32749,Elementary Schools (Public),ELEM,K-8,K,8
19646340128991,Grace Hopper STEM Academy,Inglewood Unified,601 Grace Ave.,Inglewood,Los Angeles,90301-1306,Y,Directly funded,33.96839,-118.34703,Intermediate/Middle Schools (Public),INTMIDJR,6-8,6,8
19646341996586,Animo Inglewood Charter High,Inglewood Unified,3425 West Manchester Blvd.,Inglewood,Los Angeles,90305-2101,Y,Directly funded,33.960029,-118.33138000000001,High Schools (Public),HS,9-12,9,12
19646346014518,La Tijera K-8 Charter School Academy of Excellence,Inglewood Unified,1415 North La Tijera Blvd.,Inglewood,Los Angeles,90302-1022,Y,Locally funded,33.980914,-118.36853,Elementary Schools (Public),ELEM,K-8,K,8
19646420136127,Community Collaborative Virtual - Keppel Partnership Academy,Keppel Union Elementary,"1782 La Costa Meadows Dr., Ste. 102",San Marcos,Los Angeles,92078-9102,Y,Directly funded,33.104181,-117.21885,K-12 Schools (Public),ELEMHIGH,,,
19646670123174,Life Source International Charter,Lancaster Elementary,44339 Beech Ave.,Lancaster,Los Angeles,93534-4303,Y,Directly funded,34.688337,-118.13752,Elementary Schools (Public),ELEM,K-8,K,8
19646670125559,iLEAD Lancaster Charter,Lancaster Elementary,254 East Avenue K-4,Lancaster,Los Angeles,93535-4500,Y,Directly funded,34.671313,-118.12638999999999,Elementary Schools (Public),ELEM,K-8,K,8
19646911996438,Environmental Charter High,Lawndale Elementary,16315 Grevillea Ave.,Lawndale,Los Angeles,90260-2858,Y,Directly funded,33.882553,-118.35488000000001,High Schools (Public),HS,9-12,9,12
19647090100602,"Lennox Mathematics, Science and Technology Academy",Lennox,11036 Hawthorne Blvd.,Lennox,Los Angeles,90304-2316,Y,Directly funded,33.93528,-118.3525,High Schools (Public),HS,9-12,9,12
19647090107508,Century Community Charter,Lennox,901 South Maple St.,Inglewood,Los Angeles,90301-3823,Y,Directly funded,33.952220000000004,-118.35378,Intermediate/Middle Schools (Public),INTMIDJR,6-8,6,8
19647090112250,Century Academy for Excellence,Lennox,2400 West 85th St.,Inglewood,Los Angeles,90305-1816,Y,Directly funded,33.960794,-118.31956000000001,Intermediate/Middle Schools (Public),INTMIDJR,6-8,6,8
19647091996313,Animo Leadership High,Lennox,11044 South Freeman Ave.,Inglewood,Los Angeles,90301-2902,Y,Directly funded,33.934769,-118.3477,High Schools (Public),HS,9-12,9,12
19647250127506,Intellectual Virtues Academy of Long Beach,Long Beach Unified,3601 Linden Ave.,Long Beach,Los Angeles,90807-4001,Y,Directly funded,33.823065,-118.18726000000001,Intermediate/Middle Schools (Public),INTMIDJR,6-8,6,8
19647250131938,Clear Passage Educational Center,Long Beach Unified,1471 Martin Luther King Jr. Ave.,Long Beach,Los Angeles,90813-2162,Y,Directly funded,33.784521999999996,-118.18093999999999,High Schools (Public),HS,9-12,9,12
19647330100289,N.E.W. Academy of Science and Arts,Los Angeles Unified,379 South Loma Ave.,Los Angeles,Los Angeles,90017-1142,Y,Directly funded,34.05922,-118.2667,Elementary Schools (Public),ELEM,K-5,K,5
19647330100669,Stella Middle Charter Academy,Los Angeles Unified,2636 South Mansfield Ave.,Los Angeles,Los Angeles,90016-3512,Y,Directly funded,34.031615,-118.3523,Intermediate/Middle Schools (Public),INTMIDJR,5-8,5,8
19647330100677,High Tech LA,Los Angeles Unified,17111 Victory Blvd.,Lake Balboa,Los Angeles,91406-5455,Y,Directly funded,34.187307000000004,-118.50588,High Schools (Public),HS,9-12,9,12
19647330100743,Accelerated Charter Elementary,Los Angeles Unified,3914 South Main St.,Los Angeles,Los Angeles,90037-1253,Y,Directly funded,34.011573999999996,-118.27363999999999,Elementary Schools (Public),ELEM,K-6,K,6
19647330100750,Wallis Annenberg High,Los Angeles Unified,4000 South Main St.,Los Angeles,Los Angeles,90037-1022,Y,Directly funded,34.010434000000004,-118.27393000000001,High Schools (Public),HS,9-12,9,12
19647330100776,North Valley Military Institute College Preparatory Academy,Los Angeles Unified,12105 Allegheny St.,Sun Valley,Los Angeles,91352,Y,Directly funded,34.234621999999995,-118.39656000000001,K-12 Schools (Public),ELEMHIGH,6-12,6,12
19647330100800,Central City Value,Los Angeles Unified,221 North Westmoreland Ave.,Los Angeles,Los Angeles,90004-4815,Y,Directly funded,34.074782,-118.2879,High Schools (Public),HS,9-12,9,12
19647330100867,KIPP Los Angeles College Preparatory,Los Angeles Unified,2810 Whittier Blvd.,Los Angeles,Los Angeles,90023-1527,Y,Directly funded,34.031652,-118.20961000000001,Intermediate/Middle Schools (Public),INTMIDJR,5-8,5,8
19647330101196,ICEF View Park Preparatory Charter High,Los Angeles Unified,5701 South Crenshaw Blvd.,Los Angeles,Los Angeles,90043-2409,Y,Directly funded,33.98972,-118.33107,High Schools (Public),ELEMHIGH,1-12,1,12
19647330101444,KIPP Academy of Opportunity,Los Angeles Unified,8500 South Figueroa St.,Los Angeles,Los Angeles,90003-2752,Y,Directly funded,33.961163,-118.28238999999999,Intermediate/Middle Schools (Public),INTMIDJR,5-8,5,8
19647330101659,"CATCH Prep Charter High, Inc.",Los Angeles Unified,4120 11th Ave.,Los Angeles,Los Angeles,90008-3712,Y,Directly funded,34.009559,-118.3295,High Schools (Public),HS,9-12,9,12
19647330101675,Oscar De La Hoya Animo Charter High,Los Angeles Unified,1114 South Lorena St.,Los Angeles,Los Angeles,90023-2915,Y,Directly funded,34.023419,-118.2037,High Schools (Public),HS,9-12,9,12
19647330101683,Renaissance Arts Academy,Los Angeles Unified,2558 North San Fernando Rd.,Los Angeles,Los Angeles,90065-1324,Y,Directly funded,34.108011,-118.24172,K-12 Schools (Public),ELEMHIGH,6-12,6,12
19647330102335,Ocean Charter,Los Angeles Unified,12606 Culver Blvd.,Los Angeles,Los Angeles,90066-6506,Y,Directly funded,33.986961,-118.42408,Elementary Schools (Public),ELEM,K-8,K,8
19647330102426,PUC Milagro Charter,Los Angeles Unified,1855 North Main St.,Los Angeles,Los Angeles,90031-3227,Y,Directly funded,34.066457,-118.22025,Elementary Schools (Public),ELEM,K-5,K,5
19647330102434,Animo South Los Angeles Charter,Los Angeles Unified,12226 South Western Ave.,Los Angeles,Los Angeles,90047-5240,Y,Directly funded,33.92109,-118.30786,High Schools (Public),HS,9-12,9,12
19647330102442,PUC Lakeview Charter Academy,Los Angeles Unified,11465 Kagel Canyon St.,Lake View Terrace,Los Angeles,91342-6505,Y,Directly funded,34.280132,-118.38153999999999,Intermediate/Middle Schools (Public),INTMIDJR,6-8,6,8
19647330102483,N.E.W. Academy Canoga Park,Los Angeles Unified,21425 Cohasset St.,Canoga Park,Los Angeles,91303-1450,Y,Directly funded,34.206552,-118.59788999999999,Elementary Schools (Public),ELEM,K-5,K,5
19647330102491,Dr. Theodore T. Alexander Jr. Science Center,Los Angeles Unified,3737 South Figueroa St.,Los Angeles,Los Angeles,90007-4366,Y,Locally funded,34.016902,-118.28288,Elementary Schools (Public),ELEM,K-5,K,5
19647330102541,New Designs Charter,Los Angeles Unified,2303 South Figueroa Way,Los Angeles,Los Angeles,90007-2504,Y,Directly funded,34.030857,-118.27493999999999,K-12 Schools (Public),ELEMHIGH,6-12,6,12
19647330106351,Ivy Academia,Los Angeles Unified,7353 Valley Cir. Blvd.,West Hills,Los Angeles,91304-6706,Y,Directly funded,34.206187,-118.6544,K-12 Schools (Public),ELEMHIGH,K-12,K,12
19647330106427,Synergy Charter Academy,Los Angeles Unified,900 East 33rd St.,Los Angeles,Los Angeles,90011-2527,Y,Directly funded,34.014575,-118.26081,Elementary Schools (Public),ELEM,K-5,K,5
19647330106435,Camino Nuevo Charter High,Los Angeles Unified,1215 West Miramar St.,Los Angeles,Los Angeles,90026-6115,Y,Directly funded,34.057982,-118.25793,High Schools (Public),HS,9-12,9,12
19647330106831,Animo Venice Charter High,Los Angeles Unified,820 Broadway St.,Venice,Los Angeles,90291-3408,Y,Directly funded,33.997083,-118.46356999999999,High Schools (Public),HS,9-12,9,12
19647330106849,Animo Pat Brown,Los Angeles Unified,8255 Beach St.,Los Angeles,Los Angeles,90001-4014,Y,Directly funded,33.963087,-118.24216000000001,High Schools (Public),HS,9-12,9,12
19647330106864,Alliance Gertz-Ressler Richard Merkin 6-12 Complex,Los Angeles Unified,2023 South Union Ave.,Los Angeles,Los Angeles,90007-1326,Y,Directly funded,34.036313,-118.28256,K-12 Schools (Public),ELEMHIGH,6-12,6,12
19647330106872,Bert Corona Charter,Los Angeles Unified,9400 Remick Ave.,Pacoima,Los Angeles,91331-4223,Y,Directly funded,34.239736,-118.41481,Intermediate/Middle Schools (Public),INTMIDJR,5-8,5,8
19647330107755,Port of Los Angeles High,Los Angeles Unified,250 West Fifth St.,San Pedro,Los Angeles,90731-3304,Y,Directly funded,33.740128000000006,-118.28187,High Schools (Public),HS,9-12,9,12
19647330108878,CHAMPS - Charter HS of Arts-Multimedia & Performing,Los Angeles Unified,6842 Van Nuys Blvd.,Van Nuys,Los Angeles,91405-3984,Y,Directly funded,34.195128000000004,-118.44752,High Schools (Public),HS,9-12,9,12
19647330108886,Gabriella Charter,Los Angeles Unified,1435 Logan St.,Los Angeles,Los Angeles,90026-3307,Y,Directly funded,34.079349,-118.25708,Elementary Schools (Public),ELEM,K-8,K,8
19647330108894,Alliance Judy Ivie Burton Technology Academy High,Los Angeles Unified,10101 South Broadway,Los Angeles,Los Angeles,90003-4534,Y,Directly funded,33.944203,-118.27848999999999,High Schools (Public),HS,9-12,9,12
19647330108910,Celerity Nascent Charter,Los Angeles Unified,3417 West Jefferson Blvd.,Los Angeles,Los Angeles,90018-3235,Y,Directly funded,34.025868,-118.33333999999999,Elementary Schools (Public),ELEM,K-8,K,8
19647330108928,Larchmont Charter,Los Angeles Unified,1265 North Fairfax Ave.,West Hollywood,Los Angeles,90046-5205,Y,Directly funded,34.09357,-118.36188,K-12 Schools (Public),ELEMHIGH,K-12,K,12
19647330108936,Alliance Collins Family College-Ready High,Los Angeles Unified,2071 Saturn Ave.,Huntington Park,Los Angeles,90255-3635,Y,Directly funded,33.976919,-118.23413000000001,High Schools (Public),HS,9-12,9,12
19647330109884,James Jordan Middle,Los Angeles Unified,7911 Winnetka Ave.,Winnetka,Los Angeles,91306-2317,Y,Directly funded,34.214408,-118.57181000000001,Intermediate/Middle Schools (Public),INTMIDJR,6-8,6,8
19647330109934,Our Community Charter,Los Angeles Unified,10045 Jumilla Ave.,Chatsworth,Los Angeles,91311-3507,Y,Directly funded,34.252614,-118.56341,Elementary Schools (Public),ELEM,K-8,K,8
19647330110304,Los Angeles Academy of Arts & Enterprise Charter,Los Angeles Unified,1200 West Colton St.,Los Angeles,Los Angeles,90026-5816,Y,Directly funded,34.062018,-118.25455,K-12 Schools (Public),ELEMHIGH,6-12,6,12
19647330111211,New Heights Charter,Los Angeles Unified,2202 West Martin Luther King Jr Blvd.,Los Angeles,Los Angeles,90008-2723,Y,Directly funded,34.01083,-118.31748999999999,Elementary Schools (Public),ELEM,K-8,K,8
19647330111484,New Village Girls Academy,Los Angeles Unified,147 North Occidental Blvd.,Los Angeles,Los Angeles,90026-4601,Y,Directly funded,34.071327000000004,-118.2791,High Schools (Public),HS,9-12,9,12
19647330111492,Alliance Patti And Peter Neuwirth Leadership Academy,Los Angeles Unified,4610 South Main St.,Los Angeles,Los Angeles,90037-2736,Y,Directly funded,34.001568,-118.27383,High Schools (Public),HS,9-12,9,12
19647330111500,Alliance Dr. Olga Mohan High,Los Angeles Unified,644 West 17th St.,Los Angeles,Los Angeles,90015-3400,Y,Directly funded,34.036590000000004,-118.27125,High Schools (Public),HS,9-12,9,12
19647330111518,Alliance Jack H. Skirball Middle,Los Angeles Unified,603 East 115th St.,Los Angeles,Los Angeles,90059-2322,Y,Directly funded,33.930161,-118.26361000000001,Intermediate/Middle Schools (Public),INTMIDJR,6-8,6,8
19647330111575,Animo Ralph Bunche Charter High,Los Angeles Unified,"1655 East 27th St., Ste. B",Los Angeles,Los Angeles,90011-2202,Y,Directly funded,34.012544,-118.24451,High Schools (Public),HS,9-12,9,12
19647330111583,Animo Jackie Robinson High,Los Angeles Unified,3500 South Hill St.,Los Angeles,Los Angeles,90007-4333,Y,Directly funded,34.018395,-118.27561000000001,High Schools (Public),HS,9-12,9,12
19647330111625,Animo Watts College Preparatory Academy,Los Angeles Unified,12628 Avalon Blvd.,Los Angeles,Los Angeles,90061-2728,Y,Directly funded,33.917952,-118.26523999999999,High Schools (Public),HS,9-12,9,12
19647330111641,Alliance Ouchi-O'Donovan 6-12 Complex,Los Angeles Unified,5356 South Fifth Ave.,Los Angeles,Los Angeles,90043-2622,Y,Directly funded,33.993484,-118.32246,K-12 Schools (Public),ELEMHIGH,6-12,6,12
19647330111658,Alliance Marc & Eva Stern Math and Science,Los Angeles Unified,"5151 State University Dr., Lot 2",Los Angeles,Los Angeles,90032-4226,Y,Directly funded,34.062369,-118.1716,High Schools (Public),HS,9-12,9,12
19647330112060,Hesby Oaks Leadership Charter,Los Angeles Unified,15530 Hesby St.,Encino,Los Angeles,91436-1519,Y,Locally funded,34.162078,-118.47305,Elementary Schools (Public),ELEM,K-8,K,8
19647330112201,PUC Excel Charter Academy,Los Angeles Unified,1855 North Main St.,Los Angeles,Los Angeles,90031-3227,Y,Directly funded,34.066457,-118.22025,Intermediate/Middle Schools (Public),INTMIDJR,6-8,6,8
19647330112235,Los Feliz Charter School for the Arts,Los Angeles Unified,2709 East Media Center Dr.,Los Angeles,Los Angeles,90065-1700,Y,Directly funded,34.108902,-118.24328,Elementary Schools (Public),ELEM,K-5,K,5
19647330112334,Gifted Academy of Mathematics and Entrepreneurial Studies,Los Angeles Unified,2506 West Imperial Hwy.,Hawthorne,Los Angeles,90250-1953,Y,Directly funded,33.930496000000005,-118.32116,Elementary Schools (Public),ELEM,K-5,K,5
19647330112508,Bright Star Secondary Charter Academy,Los Angeles Unified,5431 West 98th St.,Los Angeles,Los Angeles,90045-5715,Y,Directly funded,33.947769,-118.37574,High Schools (Public),HS,9-12,9,12
19647330114884,Aspire Junior Collegiate Academy,Los Angeles Unified,6724 South Alameda St.,Huntington Park,Los Angeles,90255-4139,Y,Directly funded,33.977946,-118.23499,Elementary Schools (Public),ELEM,K-5,K,5
19647330114959,Monsenor Oscar Romero Charter Middle,Los Angeles Unified,1157 South Berendo St.,Los Angeles,Los Angeles,90006-3301,Y,Directly funded,34.049274,-118.29391000000001,Intermediate/Middle Schools (Public),INTMIDJR,6-8,6,8
19647330114967,Global Education Academy,Los Angeles Unified,4141 South Figueroa St.,Los Angeles,Los Angeles,90037-2038,Y,Directly funded,34.008437,-118.28278999999999,Elementary Schools (Public),ELEM,K-5,K,5
19647330115048,Fenton Primary Center,Los Angeles Unified,11351 Dronfield Ave.,Pacoima,Los Angeles,91331-1404,Y,Directly funded,34.27637,-118.40371,Elementary Schools (Public),ELEM,K-2,K,2
19647330115113,"Ivy Bound Academy of Math, Science, and Technology Charter Middle",Los Angeles Unified,15355 Morrison St.,Sherman Oaks,Los Angeles,91403-1514,Y,Directly funded,34.160903000000005,-118.46807,Intermediate/Middle Schools (Public),INTMIDJR,5-8,5,8
19647330115139,Center for Advanced Learning,Los Angeles Unified,4016 South Central Ave.,Los Angeles,Los Angeles,90011-2708,Y,Directly funded,34.010657,-118.2565,Elementary Schools (Public),ELEM,K-5,K,5
19647330115253,Discovery Charter Preparatory School #2,Los Angeles Unified,13570 Eldridge Ave.,Sylmar,Los Angeles,91342-2343,Y,Directly funded,34.31908,-118.42517,High Schools (Public),HS,9-12,9,12
19647330115287,ICEF Vista Middle Academy,Los Angeles Unified,4471 Inglewood Blvd.,Los Angeles,Los Angeles,90066-6209,Y,Directly funded,33.99511,-118.41818,Intermediate/Middle Schools (Public),INTMIDJR,6-8,6,8
19647330116509,Alliance Morgan McKinzie High,Los Angeles Unified,110 South Townsend Ave.,Los Angeles,Los Angeles,90063-2437,Y,Directly funded,34.035647,-118.18775,High Schools (Public),HS,9-12,9,12
19647330117036,Enadia Way Technology Charter,Los Angeles Unified,22944 Enadia Way,West Hills,Los Angeles,91307-2206,Y,Locally funded,34.200001,-118.62572,Elementary Schools (Public),ELEM,K-5,K,5
19647330117077,APEX Academy,Los Angeles Unified,"1309 North Wilton Pl., 3rd Fl.",Los Angeles,Los Angeles,90028-8526,Y,Directly funded,34.052234000000006,-118.24368,High Schools (Public),HS,7-12,7,12
19647330117598,Alliance Piera Barbaglia Shaheen Health Services Academy,Los Angeles Unified,10616 South Western Ave.,Los Angeles,Los Angeles,90047-4449,Y,Directly funded,33.939477000000004,-118.30873999999999,High Schools (Public),HS,9-12,9,12
19647330117606,Alliance Leichtman-Levine Family Foundation Environmental Science High,Los Angeles Unified,2930 Fletcher Dr.,Los Angeles,Los Angeles,90065-1407,Y,Directly funded,34.113837,-118.24691999999999,High Schools (Public),HS,9-12,9,12
19647330117614,New Los Angeles Charter,Los Angeles Unified,1919 South Burnside Ave.,Los Angeles,Los Angeles,90016-1114,Y,Directly funded,34.041298,-118.35758,Intermediate/Middle Schools (Public),INTMIDJR,6-8,6,8
19647330117622,Magnolia Science Academy 4,Los Angeles Unified,"11330 West Graham Pl., B-9",Los Angeles,Los Angeles,90064,Y,Directly funded,34.029816,-118.43558,K-12 Schools (Public),ELEMHIGH,6-12,6,12
19647330117630,Magnolia Science Academy 5,Los Angeles Unified,18230 Kittridge St.,Reseda,Los Angeles,91335-6121,Y,Directly funded,34.188617,-118.52935,Intermediate/Middle Schools (Public),INTMIDJR,6-9,6,9
19647330117648,Magnolia Science Academy 6,Los Angeles Unified,3754 Dunn Dr.,Los Angeles,Los Angeles,90034-5805,Y,Directly funded,34.023973,-118.40035,Intermediate/Middle Schools (Public),INTMIDJR,6-8,6,8
19647330117655,Magnolia Science Academy 7,Los Angeles Unified,18355 Roscoe Blvd.,Northridge,Los Angeles,91325-4104,Y,Directly funded,34.221858000000005,-118.53363999999999,Elementary Schools (Public),ELEM,K-5,K,5
19647330117846,Para Los Niños Middle,Los Angeles Unified,835 Stanford Ave.,Los Angeles,Los Angeles,90021-1847,Y,Directly funded,34.035990999999996,-118.24713999999999,Intermediate/Middle Schools (Public),INTMIDJR,6-8,6,8
19647330117895,Synergy Kinetic Academy,Los Angeles Unified,1420 East Adams Blvd.,Los Angeles,Los Angeles,90011-1820,Y,Directly funded,34.015715,-118.24877,Intermediate/Middle Schools (Public),INTMIDJR,6-8,6,8
19647330117903,KIPP Raices Academy,Los Angeles Unified,668 Atlantic Blvd.,Los Angeles,Los Angeles,90022-1118,Y,Directly funded,34.022971000000005,-118.15613,Elementary Schools (Public),ELEM,K-4,K,4
19647330117911,New Millennium Secondary,Los Angeles Unified,"1301 West. 182nd St., Ste. B",Gardena,Los Angeles,90248-3322,Y,Directly funded,33.867288,-118.29473,High Schools (Public),HS,9-12,9,12
19647330117937,ICEF Vista Elementary Academy,Los Angeles Unified,4471 Inglewood Blvd.,Los Angeles,Los Angeles,90066-6209,Y,Directly funded,33.99511,-118.41818,Elementary Schools (Public),ELEM,K-5,K,5
19647330117945,ICEF Lou Dantzler Preparatory Academy,Los Angeles Unified,5940 South Budlong Ave.,Los Angeles,Los Angeles,90044-2815,Y,Directly funded,33.986184,-118.29393,Elementary Schools (Public),ELEM,K-6,K,6
19647330117952,ICEF Innovation Los Angeles Charter,Los Angeles Unified,3855 West Slauson Ave.,Los Angeles,Los Angeles,90043-2947,Y,Directly funded,33.989221,-118.34173999999999,Elementary Schools (Public),ELEM,K-5,K,5
19647330117978,Goethe International Charter,Los Angeles Unified,12500 Braddock Dr.,Los Angeles,Los Angeles,90066-6808,Y,Directly funded,33.987312,-118.42225,Elementary Schools (Public),ELEM,K-5,K,5
19647330118588,Alain Leroy Locke College Preparatory Academy,Los Angeles Unified,325 East 111th St.,Los Angeles,Los Angeles,90061-3003,Y,Directly funded,33.934867,-118.26893000000001,High Schools (Public),HS,9-12,9,12
19647330119974,PUC Santa Rosa Charter Academy,Los Angeles Unified,3838 Eagle Rock Blvd.,Los Angeles,Los Angeles,90065-3638,Y,Directly funded,34.118988,-118.2309,Intermediate/Middle Schools (Public),INTMIDJR,6-8,6,8
19647330119982,Equitas Academy Charter,Los Angeles Unified,1700 West Pico Blvd.,Los Angeles,Los Angeles,90015-2412,Y,Directly funded,34.045153000000006,-118.27835,Elementary Schools (Public),ELEM,K-4,K,4
19647330120014,Endeavor College Preparatory Charter,Los Angeles Unified,1263 South Soto St.,Los Angeles,Los Angeles,90023-2615,Y,Directly funded,34.027019,-118.21956999999999,Elementary Schools (Public),ELEM,K-8,K,8
19647330120022,Valor Academy Middle,Los Angeles Unified,9034 Burnet Ave.,North Hills,Los Angeles,91343-2319,Y,Directly funded,34.234685,-118.46264,Intermediate/Middle Schools (Public),INTMIDJR,5-8,5,8
19647330120030,Alliance College-Ready Middle Academy 4,Los Angeles Unified,9719 South Main St.,Los Angeles,Los Angeles,90003-4135,Y,Directly funded,33.947773,-118.27422,Intermediate/Middle Schools (Public),INTMIDJR,6-8,6,8
19647330120048,Alliance College-Ready Middle Academy 5,Los Angeles Unified,211 South Avenue 20,Los Angeles,Los Angeles,90031-2508,Y,Directly funded,34.072418,-118.22001999999999,Intermediate/Middle Schools (Public),INTMIDJR,6-8,6,8
19647330120071,New Designs Charter School-Watts,Los Angeles Unified,12714 South Avalon Blvd.,Los Angeles,Los Angeles,90061-2730,Y,Directly funded,33.917147,-118.26516000000001,K-12 Schools (Public),ELEMHIGH,6-12,6,12
19647330120097,Academia Moderna,Los Angeles Unified,2410 Broadway,Walnut Park,Los Angeles,90255-6342,Y,Directly funded,33.967144,-118.22965,Elementary Schools (Public),ELEM,K-5,K,5
19647330120477,Aspire Titan Academy,Los Angeles Unified,6720 South Alameda St.,Huntington Park,Los Angeles,90255-3617,Y,Directly funded,33.978062,-118.2343,Elementary Schools (Public),ELEM,K-5,K,5
19647330120527,Watts Learning Center Charter Middle,Los Angeles Unified,8800 South San Pedro St.,Los Angeles,Los Angeles,90003-3541,Y,Directly funded,33.95715,-118.26875,Intermediate/Middle Schools (Public),INTMIDJR,6-8,6,8
19647330121079,Ararat Charter,Los Angeles Unified,6555 Sylmar Ave.,Van Nuys,Los Angeles,91401-6202,Y,Directly funded,34.190002,-118.44658999999999,Elementary Schools (Public),ELEM,K-5,K,5
19647330121137,Ingenium Charter,Los Angeles Unified,22250 Elkwood St.,Canoga Park,Los Angeles,91304-5501,Y,Directly funded,34.211776,-118.61105,Elementary Schools (Public),ELEM,K-5,K,5
19647330121285,Alliance Cindy and Bill Simon Technology Academy High,Los Angeles Unified,10720 South Wilmington Ave.,Los Angeles,Los Angeles,90059-1236,Y,Directly funded,33.938477,-118.23896,High Schools (Public),HS,9-12,9,12
19647330121293,Alliance Tennenbaum Family Technology High,Los Angeles Unified,2050 San Fernando Rd.,Los Angeles,Los Angeles,90065-1267,Y,Directly funded,34.290459000000006,-118.44949,High Schools (Public),HS,9-12,9,12
19647330121699,KIPP Empower Academy,Los Angeles Unified,8466 South Figueroa St.,Los Angeles,Los Angeles,90003-2729,Y,Directly funded,33.961931,-118.28268,Elementary Schools (Public),ELEM,K-4,K,4
19647330121707,KIPP Comienza Community Prep,Los Angeles Unified,6410 Rita Ave.,Huntington Park,Los Angeles,90255-4126,Y,Directly funded,33.981204999999996,-118.22379,Elementary Schools (Public),ELEM,K-5,K,5
19647330121848,Crown Preparatory Academy,Los Angeles Unified,2055 West 24th St.,Los Angeles,Los Angeles,90018-1925,Y,Directly funded,34.035675,-118.31158,Intermediate/Middle Schools (Public),INTMIDJR,5-8,5,8
19647330122242,TEACH Academy of Technologies,Los Angeles Unified,10045 South Western Ave.,Los Angeles,Los Angeles,90047,Y,Directly funded,33.944028,-118.30936000000001,Intermediate/Middle Schools (Public),INTMIDJR,5-8,5,8
19647330122481,Animo Jefferson Charter Middle,Los Angeles Unified,"1655 East 27th St., Ste. A",Los Angeles,Los Angeles,90011-2202,Y,Directly funded,34.012544,-118.24451,Intermediate/Middle Schools (Public),INTMIDJR,6-8,6,8
19647330122499,Animo Westside Charter Middle,Los Angeles Unified,5456 McConnell Ave.,Los Angeles,Los Angeles,90066-2056,Y,Directly funded,33.977472999999996,-118.41861999999999,Intermediate/Middle Schools (Public),INTMIDJR,6-8,6,8
19647330122556,Citizens of the World Charter School Hollywood,Los Angeles Unified,1316 North Bronson Ave.,Los Angeles,Los Angeles,90028-8497,Y,Directly funded,34.047216999999996,-118.32578999999998,Elementary Schools (Public),ELEM,K-5,K,5
19647330122564,Camino Nuevo Elementary #3,Los Angeles Unified,1723 Cordova St.,Los Angeles,Los Angeles,90007-1114,Y,Directly funded,34.039097999999996,-118.2944,Elementary Schools (Public),ELEM,K-8,K,8
19647330122606,PUC Lakeview Charter High,Los Angeles Unified,13361 Glenoaks Blvd.,Sylmar,Los Angeles,91342-2110,Y,Directly funded,34.31419,-118.45976,High Schools (Public),HS,9-12,9,12
19647330122614,Aspire Gateway Academy Charter,Los Angeles Unified,8929 Kauffman Ave.,South Gate,Los Angeles,90280-3422,Y,Directly funded,33.951564000000005,-118.18911000000001,Elementary Schools (Public),ELEM,K-5,K,5
19647330122622,Aspire Firestone Academy Charter,Los Angeles Unified,8929 Kauffman Ave.,South Gate,Los Angeles,90280-3422,Y,Directly funded,33.951564000000005,-118.18911000000001,Elementary Schools (Public),ELEM,K-5,K,5
19647330122630,Para Los Niños - Evelyn Thurman Gratts Primary,Los Angeles Unified,474 South Hartford Ave.,Los Angeles,Los Angeles,90017-1306,Y,Directly funded,34.056466,-118.26396000000001,Elementary Schools (Public),ELEM,K-1,K,1
19647330122655,Celerity Octavia Charter,Los Angeles Unified,3010 Estara Ave.,Los Angeles,Los Angeles,90065-2205,Y,Directly funded,34.115657,-118.24078,Elementary Schools (Public),ELEM,K-8,K,8
19647330122721,Aspire Pacific Academy,Los Angeles Unified,2565 58th St.,Huntington Park,Los Angeles,90255-4126,Y,Directly funded,33.990184,-118.22593,K-12 Schools (Public),ELEMHIGH,6-10,6,10
19647330122739,Vista Charter Middle,Los Angeles Unified,2900 West Temple St.,Los Angeles,Los Angeles,90026-4516,Y,Directly funded,34.074112,-118.27853999999999,Intermediate/Middle Schools (Public),INTMIDJR,6-8,6,8
19647330122747,Magnolia Science Academy Bell,Los Angeles Unified,6411 Orchard Ave.,Bell,Los Angeles,90201-1023,Y,Directly funded,33.978914,-118.19941000000001,Intermediate/Middle Schools (Public),INTMIDJR,6-8,6,8
19647330122754,Valley Charter Elementary,Los Angeles Unified,16514 Nordhoff St.,North Hills,Los Angeles,91343-3724,Y,Directly funded,34.234961,-118.49203,Elementary Schools (Public),ELEM,K-5,K,5
19647330122838,Valley Charter Middle,Los Angeles Unified,14646 Sherman Way,Van Nuys,Los Angeles,91405-5860,Y,Directly funded,34.200628,-118.4524,Intermediate/Middle Schools (Public),INTMIDJR,6-8,6,8
19647330122861,Camino Nuevo Academy #2,Los Angeles Unified,3400 West 3rd St.,Los Angeles,Los Angeles,90020-1605,Y,Directly funded,34.068548,-118.28891999999999,Elementary Schools (Public),ELEM,K-8,K,8
19647330123133,Alliance Susan and Eric Smidt Technology High,Los Angeles Unified,211 South Avenue 20,Los Angeles,Los Angeles,90031-2508,Y,Directly funded,34.072368,-118.22022,High Schools (Public),HS,9-12,9,12
19647330123141,Alliance Ted K. Tajima High,Los Angeles Unified,1552 W. Rockwood St.,Los Angeles,Los Angeles,90026-5520,Y,Directly funded,34.063479,-118.26153000000001,High Schools (Public),HS,9-12,9,12
19647330123158,Arts In Action Community Charter,Los Angeles Unified,"1241 Soto St., Ste. 212",Los Angeles,Los Angeles,90023-2671,Y,Directly funded,34.027414,-118.22001999999999,Elementary Schools (Public),ELEM,K-5,K,5
19647330123166,Celerity Palmati Charter,Los Angeles Unified,6501 Laurel Canyon Blvd.,North Hollywood,Los Angeles,91606-1520,Y,Directly funded,34.189624,-118.39693,Elementary Schools (Public),ELEM,K-8,K,8
19647330123984,Celerity Cardinal Charter,Los Angeles Unified,7330 Bakman Ave.,Sun Valley,Los Angeles,91352-4914,Y,Directly funded,34.203587,-118.37786000000001,Elementary Schools (Public),ELEM,K-5,K,5
19647330123992,Animo Ellen Ochoa Charter Middle,Los Angeles Unified,"725 South Indiana St., Rm. 65",Los Angeles,Los Angeles,90023-1840,Y,Directly funded,34.026007,-118.19331000000001,Intermediate/Middle Schools (Public),INTMIDJR,6-8,6,8
19647330124008,Animo James B. Taylor Charter Middle,Los Angeles Unified,810 East 111th Pl.,Los Angeles,Los Angeles,90059-1520,Y,Directly funded,33.934818,-118.25988000000001,Intermediate/Middle Schools (Public),INTMIDJR,6-8,6,8
19647330124016,Animo Western Charter Middle,Los Angeles Unified,12226 South Western Ave.,Los Angeles,Los Angeles,90047-5240,Y,Directly funded,33.920533,-118.30678,Intermediate/Middle Schools (Public),INTMIDJR,6-8,6,8
19647330124024,Animo Phillis Wheatley Charter Middle,Los Angeles Unified,12226 South Western Ave.,Los Angeles,Los Angeles,90047-5240,Y,Directly funded,33.92109,-118.30786,Intermediate/Middle Schools (Public),INTMIDJR,6-8,6,8
19647330124198,Extera Public,Los Angeles Unified,2226 East Third St.,Los Angeles,Los Angeles,90033-3906,Y,Directly funded,34.04262,-118.21301000000001,Elementary Schools (Public),ELEM,K-8,K,8
19647330124222,Rise Kohyang Middle,Los Angeles Unified,"3020 Wilshire Blvd., Ste. 250",Los Angeles,Los Angeles,90010-1111,Y,Directly funded,34.061122999999995,-118.28738,Intermediate/Middle Schools (Public),INTMIDJR,6-8,6,8
19647330124560,Synergy Quantum Academy,Los Angeles Unified,300 East 53rd St.,Los Angeles,Los Angeles,90011-4522,Y,Directly funded,33.99422,-118.2701,High Schools (Public),HS,9-12,9,12
19647330124784,Aspire Slauson Academy Charter,Los Angeles Unified,123 West 59th St.,Los Angeles,Los Angeles,90003-1103,Y,Directly funded,33.986959000000006,-118.27481999999999,Elementary Schools (Public),ELEM,K-6,K,6
19647330124792,Aspire Juanita Tate Academy Charter,Los Angeles Unified,123 West 59th St.,Los Angeles,Los Angeles,90003-1103,Y,Directly funded,33.986959000000006,-118.27481999999999,Elementary Schools (Public),ELEM,K-6,K,6
19647330124800,Aspire Inskeep Academy Charter,Los Angeles Unified,123 West 59th St.,Los Angeles,Los Angeles,90003-1103,Y,Directly funded,33.986959000000006,-118.27481999999999,Elementary Schools (Public),ELEM,K-6,K,6
19647330124818,Los Angeles Leadership Primary Academy,Los Angeles Unified,2670 Griffin Ave.,Los Angeles,Los Angeles,90031-2311,Y,Directly funded,34.077544,-118.21181999999999,Elementary Schools (Public),ELEM,K-5,K,5
19647330124826,Camino Nuevo Charter Academy #4,Los Angeles Unified,1018 Mohawk St.,Los Angeles,Los Angeles,90026-3131,Y,Directly funded,34.076816,-118.26529,Elementary Schools (Public),ELEM,K-8,K,8
19647330124883,Animo College Preparatory Academy,Los Angeles Unified,2265 East 103rd St.,Los Angeles,Los Angeles,90002-3132,Y,Directly funded,33.944503000000005,-118.23114,High Schools (Public),HS,9-12,9,12
19647330124891,Alliance Renee and Meyer Luskin Academy High,Los Angeles Unified,2941 West 70th St.,Los Angeles,Los Angeles,90043-4420,Y,Directly funded,33.977090000000004,-118.32575,High Schools (Public),HS,9-12,9,12
19647330124933,PUC Early College Academy for Leaders and Scholars (ECALS),Los Angeles Unified,2050 San Fernando Rd.,Los Angeles,Los Angeles,90065-1267,Y,Directly funded,34.290459000000006,-118.44949,High Schools (Public),HS,9-12,9,12
19647330124941,Alliance Margaret M. Bloomfield Technology Academy High,Los Angeles Unified,7907 Santa Fe Ave.,Huntington Park,Los Angeles,90255-6630,Y,Directly funded,33.967152,-118.23061000000001,High Schools (Public),HS,9-11,9,11
19647330125609,KIPP Philosophers Academy,Los Angeles Unified,8300 South Central Ave.,Los Angeles,Los Angeles,90001-3707,Y,Directly funded,33.963384000000005,-118.25608999999999,Intermediate/Middle Schools (Public),INTMIDJR,5-8,5,8
19647330125625,KIPP Scholar Academy,Los Angeles Unified,1729 West Martin Luther King Jr. Blvd.,Los Angeles,Los Angeles,90062-1503,Y,Directly funded,34.010736,-118.30961,Intermediate/Middle Schools (Public),INTMIDJR,5-8,5,8
19647330125641,KIPP Sol Academy,Los Angeles Unified,4800 East Cesar Chavez Ave.,Los Angeles,Los Angeles,90022-1307,Y,Directly funded,34.040184,-118.16131000000001,Intermediate/Middle Schools (Public),INTMIDJR,5-8,5,8
19647330125864,Ednovate - USC Hybrid High College Prep,Los Angeles Unified,"350 South Figueroa St., Ste. 100",Los Angeles,Los Angeles,90071-1115,Y,Directly funded,34.054717,-118.2543,High Schools (Public),HS,9-12,9,12
19647330126136,Math and Science College Preparatory,Los Angeles Unified,3200 West Adams Blvd.,Los Angeles,Los Angeles,90018-1832,Y,Directly funded,34.031959,-118.31897,High Schools (Public),HS,9-12,9,12
19647330126169,Equitas Academy #2,Los Angeles Unified,2723 West 8th St.,Los Angeles,Los Angeles,90005-1226,Y,Directly funded,34.057891,-118.28503,Intermediate/Middle Schools (Public),INTMIDJR,5-8,5,8
19647330126177,Citizens of the World Charter School Silver Lake,Los Angeles Unified,5616 Carlton Way,Los Angeles,Los Angeles,90028,Y,Directly funded,34.100491,-118.31182,Elementary Schools (Public),ELEM,K-7,K,7
19647330126193,Citizens of the World Charter School Mar Vista,Los Angeles Unified,11561 Gateway Blvd.,Los Angeles,Los Angeles,90064-3009,Y,Directly funded,34.031575,-118.44245,Elementary Schools (Public),ELEM,K-5,K,5
19647330126797,Aspire Centennial College Preparatory Academy,Los Angeles Unified,2079 Saturn Ave.,Huntington Park,Los Angeles,90255-3635,Y,Directly funded,33.97744,-118.23388,Intermediate/Middle Schools (Public),INTMIDJR,6-8,6,8
19647330127217,Alliance Alice M. Baxter College-Ready High,Los Angeles Unified,461 West 9th St.,San Pedro,Los Angeles,90731-3211,Y,Directly funded,33.735787,-118.28715,High Schools (Public),HS,9-11,9,11
19647330127670,KIPP Iluminar Academy,Los Angeles Unified,4800 East Cesar Chavez Ave.,Los Angeles,Los Angeles,90022-1307,Y,Directly funded,34.040184,-118.16131000000001,Elementary Schools (Public),ELEM,K-4,K,4
19647330127852,Executive Preparatory Academy of Finance,Los Angeles Unified,2814 Manhattan Beach Blvd.,Gardena,Los Angeles,90249-4534,Y,Directly funded,33.887316,-118.32531000000002,High Schools (Public),HS,9-12,9,12
19647330127878,Pathways Community,Los Angeles Unified,8800 South San Pedro St.,Los Angeles,Los Angeles,90003-3541,Y,Directly funded,33.95715,-118.26875,High Schools (Public),HS,9-11,9,11
19647330127886,City Language Immersion Charter,Los Angeles Unified,4001 Venice Blvd.,Los Angeles,Los Angeles,90019-6009,Y,Directly funded,34.043882,-118.32485,Elementary Schools (Public),ELEM,K-5,K,5
19647330127894,Valor Academy High,Los Angeles Unified,"8015 Van Nuys Blvd., 4th Fl.",Panorama City,Los Angeles,91402-6009,Y,Directly funded,34.229375,-118.45026000000001,High Schools (Public),HS,9-12,9,12
19647330127910,Camino Nuevo High #2,Los Angeles Unified,3500 West Temple St.,Los Angeles,Los Angeles,90004-3620,Y,Directly funded,34.076443,-118.2855,High Schools (Public),HS,9-12,9,12
19647330127936,PREPA TEC - Los Angeles,Los Angeles Unified,2665 Clarendon Ave.,Huntington Park,Los Angeles,90255-4138,Y,Directly funded,33.983783,-118.22334,Intermediate/Middle Schools (Public),INTMIDJR,6-8,6,8
19647330127977,Metro Charter,Los Angeles Unified,700 Wilshire Blvd. Ste. 400,Los Angeles,Los Angeles,90017-3811,Y,Directly funded,34.04867,-118.25753,Elementary Schools (Public),ELEM,K-5,K,5
19647330127985,Ingenium Charter Middle,Los Angeles Unified,7330 Winnetka Ave.,Winnetka,Los Angeles,91306-2905,Y,Directly funded,34.202184,-118.56885,Intermediate/Middle Schools (Public),INTMIDJR,6-8,6,8
19647330128009,Alliance Leadership Middle Academy,Los Angeles Unified,2941 West 70th St.,Los Angeles,Los Angeles,90043-4420,Y,Directly funded,33.977090000000004,-118.32575,Intermediate/Middle Schools (Public),INTMIDJR,6-8,6,8
19647330128025,Lashon Academy,Los Angeles Unified,7477 Kester Ave.,Van Nuys,Los Angeles,91405-1722,Y,Directly funded,34.206356,-118.45748999999999,Elementary Schools (Public),ELEM,K-4,K,4
19647330128033,Alliance College-Ready Middle Academy 8,Los Angeles Unified,113 South Rowan Ave.,Los Angeles,Los Angeles,90063-2434,Y,Directly funded,34.035463,-118.18731000000001,Intermediate/Middle Schools (Public),INTMIDJR,6-8,6,8
19647330128041,Alliance Kory Hunter Middle,Los Angeles Unified,5886 Compton Ave.,Los Angeles,Los Angeles,90001-1345,Y,Directly funded,33.987113,-118.24738,Intermediate/Middle Schools (Public),INTMIDJR,6-8,6,8
19647330128058,Alliance College-Ready Middle Academy 12,Los Angeles Unified,131 East 50th St.,Los Angeles,Los Angeles,90011-3937,Y,Directly funded,33.997698,-118.27327,Intermediate/Middle Schools (Public),INTMIDJR,6-8,6,8
19647330128116,Global Education Academy Middle,Los Angeles Unified,1512 Arlington Ave.,Los Angeles,Los Angeles,90019-4552,Y,Directly funded,34.045097,-118.3172,Intermediate/Middle Schools (Public),INTMIDJR,6-8,6,8
19647330128132,Extera Public School No. 2,Los Angeles Unified,1015 South Lorena St.,Los Angeles,Los Angeles,90023-2222,Y,Directly funded,34.025523,-118.20272,Elementary Schools (Public),ELEM,K-4,K,4
19647330128371,New Horizons Charter Academy,Los Angeles Unified,5955 Lankershim Blvd.,North Hollywood,Los Angeles,91601-1006,Y,Directly funded,34.178844,-118.38306999999999,Elementary Schools (Public),ELEM,K-8,K,8
19647330128389,"Ivy Bound Academy Math, Science, and Technology Charter Middle 2",Los Angeles Unified,20040 Parthenia St.,Northridge,Los Angeles,91324-3222,Y,Directly funded,34.228190999999995,-118.56985,Intermediate/Middle Schools (Public),INTMIDJR,5-8,5,8
19647330128512,KIPP Academy of Innovation,Los Angeles Unified,3601 East First St.,Los Angeles,Los Angeles,90063-2325,Y,Directly funded,34.036338,-118.18902,Intermediate/Middle Schools (Public),INTMIDJR,5-7,5,7
19647330129270,Animo Mae Jemison Charter Middle,Los Angeles Unified,12700 Avalon Blvd.,Los Angeles,Los Angeles,90061-2730,Y,Directly funded,33.917548,-118.26404,Intermediate/Middle Schools (Public),INTMIDJR,6-8,6,8
19647330129460,KIPP Vida Preparatory Academy,Los Angeles Unified,4410 South Budlong Ave.,Los Angeles,Los Angeles,90037-2306,Y,Directly funded,34.003387,-118.29568,Elementary Schools (Public),ELEM,K-3,K,3
19647330129593,PUC Inspire Charter Academy,Los Angeles Unified,12550 Van Nuys Blvd.,Pacoima,Los Angeles,91331-1354,Y,Directly funded,34.276957,-118.4059,Intermediate/Middle Schools (Public),INTMIDJR,6-8,6,8
19647330129619,PUC Community Charter Elementary,Los Angeles Unified,14019 Sayre St.,Sylmar,Los Angeles,91342-4265,Y,Directly funded,34.306469,-118.43865,Elementary Schools (Public),ELEM,K-5,K,5
19647330129627,TEACH Tech Charter High,Los Angeles Unified,10000 South Western Ave.,Los Angeles,Los Angeles,90047-4254,Y,Directly funded,33.94512,-118.30864,High Schools (Public),HS,9-12,9,12
19647330129650,Equitas Academy #3 Charter,Los Angeles Unified,1626 Orchard Ave,Los Angeles,Los Angeles,90006-5316,Y,Directly funded,34.043461,-118.28804,Elementary Schools (Public),ELEM,K-1,K,1
19647330129825,Clemente Charter,Los Angeles Unified,5701 Fishburn Ave.,Maywood,Los Angeles,90270-2819,Y,Directly funded,33.989428000000004,-118.19135,Elementary Schools (Public),ELEM,K-5,K,5
19647330129833,Global Education Academy 2,Los Angeles Unified,1717 Seventh Ave.,Los Angeles,Los Angeles,90019-6004,Y,Directly funded,34.040299,-118.32542,Elementary Schools (Public),ELEM,K-4,K,4
19647330129858,Everest Value,Los Angeles Unified,668 South Catalina St.,Los Angeles,Los Angeles,90005-1708,Y,Directly funded,34.061075,-118.29523999999999,Elementary Schools (Public),ELEM,K-8,K,8
19647330129866,Village Charter Academy,Los Angeles Unified,7357 Jordan Ave.,Canoga Park,Los Angeles,91303-1238,Y,Directly funded,34.204058,-118.60305,Elementary Schools (Public),ELEM,K-5,K,5
19647330129874,Community Preparatory Academy,Los Angeles Unified,7019 South Van Ness Ave.,Los Angeles,Los Angeles,90044-1659,Y,Directly funded,33.975705,-118.31838,Elementary Schools (Public),ELEM,K-8,K,8
19647330131466,Fenton STEM Academy: Elementary Center for Science Technology Engineering and Mathematics,Los Angeles Unified,8926 Sunland Blvd.,Sun Valley,Los Angeles,91352-2843,Y,Directly funded,34.231474,-118.3662,Elementary Schools (Public),ELEM,K-5,K,5
19647330131722,Fenton Charter Leadership Academy,Los Angeles Unified,8926 Sunland Blvd.,Sun Valley,Los Angeles,91352-2843,Y,Directly funded,34.231474,-118.3662,Elementary Schools (Public),ELEM,K-2,K,2
19647330131771,KIPP Ignite Academy,Los Angeles Unified,9110 South Central Ave.,Los Angeles,Los Angeles,90002-1743,Y,Directly funded,33.953599,-118.25608999999999,Elementary Schools (Public),ELEM,K-1,K,1
19647330131797,KIPP Promesa Prep,Los Angeles Unified,207 South Dacotah St.,Los Angeles,Los Angeles,90063-3023,Y,Directly funded,34.03761,-118.20181000000001,Elementary Schools (Public),ELEM,K-1,K,1
19647330131821,Collegiate Charter High of Los Angeles,Los Angeles Unified,312 North Record Ave.,Los Angeles,Los Angeles,90063-1824,Y,Directly funded,34.039318,-118.18046000000001,High Schools (Public),HS,9-10,9,10
19647330131839,Summit Preparatory Charter,Los Angeles Unified,644 56th St.,Los Angeles,Los Angeles,90011-4660,Y,Directly funded,33.990891999999995,-118.26436000000001,Elementary Schools (Public),ELEM,4-6,4,6
19647330131847,Public Policy Charter,Los Angeles Unified,1701 Browning Blvd.,Los Angeles,Los Angeles,90062-1302,Y,Directly funded,34.012037,-118.30943,Intermediate/Middle Schools (Public),INTMIDJR,5-7,5,7
19647330131870,Resolute Academy Charter,Los Angeles Unified,1265 East 112th St.,Los Angeles,Los Angeles,90059-1137,Y,Directly funded,33.933775,-118.25293,Intermediate/Middle Schools (Public),INTMIDJR,5-7,5,7
19647330131904,Libertas College Preparatory Charter,Los Angeles Unified,3875 Dublin Ave.,Los Angeles,Los Angeles,90008-1945,Y,Directly funded,34.015139000000005,-118.3226,Elementary Schools (Public),ELEM,4-6,4,6
19647330132027,University Preparatory Value High,Los Angeles Unified,1929 West Pico Blvd.,Los Angeles,Los Angeles,90006-5008,Y,Directly funded,34.046778,-118.28093999999999,High Schools (Public),HS,9-10,9,10
19647330132084,Alliance Marine - Innovation and Technology 6-12 Complex,Los Angeles Unified,11933 Allegheny St.,Sun Valley,Los Angeles,91352-1834,Y,Directly funded,34.237261,-118.39327,K-12 Schools (Public),INTMIDJR,6-9,6,9
19647330132126,Bert Corona Charter High,Los Angeles Unified,12513 Gain St.,Pacoima,Los Angeles,91331-1628,Y,Directly funded,34.271263,-118.40446000000001,High Schools (Public),HS,9-11,9,11
19647330132282,Ednovate - East College Prep,Los Angeles Unified,3825 North Mission Rd.,Los Angeles,Los Angeles,90031-3137,Y,Directly funded,34.070109,-118.19967,High Schools (Public),HS,9-10,9,10
19647330133272,PUC Triumph Charter Academy and PUC Triumph Charter High,Los Angeles Unified,13361 Glenoaks Blvd.,Sylmar,Los Angeles,91342-4265,Y,Directly funded,34.31419,-118.45976,K-12 Schools (Public),ELEMHIGH,6-12,6,12
19647330133280,PUC Nueva Esperanza Charter Academy,Los Angeles Unified,1218 North Fourth St.,San Fernando,Los Angeles,91340-2314,Y,Directly funded,34.287618,-118.43853999999999,K-12 Schools (Public),ELEMHIGH,6-10,6,10
19647330133298,PUC CALS Middle School and Early College High,Los Angeles Unified,11500 Eldridge Ave.,Lake View Terrace,Los Angeles,91342-6522,Y,Directly funded,34.280097,-118.38238,K-12 Schools (Public),ELEMHIGH,6-12,6,12
19647330133686,Equitas Academy 4,Los Angeles Unified,1700 West Pico Blvd.,Los Angeles,Los Angeles,90015-2412,Y,Directly funded,34.044837,-118.27843999999999,Elementary Schools (Public),INTMIDJR,,,
19647330133694,Valor Academy Elementary,Los Angeles Unified,17081 Devonshire St.,Northridge,Los Angeles,91325-1616,Y,Directly funded,34.258472,-118.50573,Elementary Schools (Public),ELEM,K,K,
19647330133702,New Los Angeles Charter Elementary,Los Angeles Unified,5421 Rodeo Rd.,Los Angeles,Los Angeles,90016-5122,Y,Directly funded,34.022506,-118.36528999999999,Elementary Schools (Public),ELEM,K-1,K,1
19647330133710,Girls Athletic Leadership School Los Angeles,Los Angeles Unified,8755 Woodman Ave.,Arleta,Los Angeles,91331-6506,Y,Directly funded,34.229022,-118.43609,Intermediate/Middle Schools (Public),ELEM,6,6,
19647330133868,Rise Kohyang High,Los Angeles Unified,600 South Lafayette Park Pl. Second Fl.,Los Angeles,Los Angeles,90057,Y,Directly funded,34.062413,-118.28215,High Schools (Public),HS,9,9,
19647330133884,California Collegiate Charter,Los Angeles Unified,2009 West Martin Luther King Jr. Blvd.,Los Angeles,Los Angeles,90062-1434,Y,Directly funded,34.011181,-118.31556,K-12 Schools (Public),ELEM,6,6,
19647330134023,Animo Florence-Firestone Charter Middle,Los Angeles Unified,155 West 69th St.,Los Angeles,Los Angeles,90003-1823,Y,Directly funded,33.977536,-118.27591000000001,Intermediate/Middle Schools (Public),ELEM,6,6,
19647330134148,The City,Los Angeles Unified,11625 West Pico Blvd.,Los Angeles,Los Angeles,90064-2908,Y,Directly funded,34.032502,-118.44458,K-12 Schools (Public),INTMIDJR,6-8,6,8
19647330134205,Arts in Action Community Middle,Los Angeles Unified,"1241 South Soto St., Ste. 212",Los Angeles,Los Angeles,90023-2672,Y,Directly funded,34.026752,-118.22001999999999,Intermediate/Middle Schools (Public),INTMIDJR,6-7,6,7
19647330135129,PUC International Preparatory Academy,Los Angeles Unified,1800 Colorado Blvd.,Los Angeles,Los Angeles,90041-1340,Y,Directly funded,34.139013,-118.20657,Elementary Schools (Public),ELEM,,,
19647330135509,Gabriella Charter 2,Los Angeles Unified,3736 Trinity St.,Los Angeles,Los Angeles,90011-2635,Y,Directly funded,34.0121,-118.26936,Elementary Schools (Public),ELEM,,,
19647330135517,KIPP Corazon Academy,Los Angeles Unified,2728 Liberty Blvd.,South Gate,Los Angeles,90280-2055,Y,Directly funded,33.960956,-118.22198,Elementary Schools (Public),ELEM,,,
19647330135616,Crete Academy,Los Angeles Unified,5125 Crenshaw Blvd.,Los Angeles,Los Angeles,90043-1853,Y,Directly funded,33.995985,-118.33118999999999,Elementary Schools (Public),ELEM,,,
19647330135632,WISH Academy High,Los Angeles Unified,7400 West Manchester Ave.,Los Angeles,Los Angeles,90045-2322,Y,Directly funded,33.957763,-118.42888,High Schools (Public),HS,,,
19647330135715,Ednovate - Esperanza College Prep,Los Angeles Unified,319 North Humphreys Ave.,East Los Angeles,Los Angeles,90022-1422,Y,Directly funded,34.038931,-118.17147,High Schools (Public),HS,,,
19647330135723,Ednovate - Brio College Prep,Los Angeles Unified,600 South La Fayette Park Pl.,Los Angeles,Los Angeles,90057-3243,Y,Directly funded,34.062413,-118.28215,High Schools (Public),HS,,,
19647330135921,WISH Community,Los Angeles Unified,6550 West 80th St.,Los Angeles,Los Angeles,90045-1127,Y,Directly funded,33.96779,-118.40387,Elementary Schools (Public),ELEM,,,
19647331931047,Birmingham Community Charter High,Los Angeles Unified,17000 Haynes St.,Lake Balboa,Los Angeles,91406-5420,Y,Directly funded,34.188953000000005,-118.5049,High Schools (Public),HS,9-12,9,12
19647331931708,Chatsworth Charter High,Los Angeles Unified,10027 Lurline Ave.,Chatsworth,Los Angeles,91311-3153,Y,Locally funded,34.252319,-118.58425,High Schools (Public),HS,9-12,9,12
19647331931864,Grover Cleveland Charter High,Los Angeles Unified,8140 Vanalden Ave.,Reseda,Los Angeles,91335-1136,Y,Locally funded,34.218185999999996,-118.5491,High Schools (Public),HS,9-12,9,12
19647331932623,El Camino Real Charter High,Los Angeles Unified,5440 Valley Cir. Blvd.,Woodland Hills,Los Angeles,91367-5949,Y,Directly funded,34.169284999999995,-118.64335,High Schools (Public),HS,9-12,9,12
19647331933746,Granada Hills Charter High,Los Angeles Unified,10535 Zelzah Ave.,Granada Hills,Los Angeles,91344-5902,Y,Directly funded,34.261787,-118.52343,High Schools (Public),HS,9-12,9,12
19647331938554,Sylmar Charter High,Los Angeles Unified,13050 Borden Ave.,Sylmar,Los Angeles,91342-4251,Y,Locally funded,34.307294,-118.4428,High Schools (Public),HS,9-12,9,12
19647331938612,Taft Charter High,Los Angeles Unified,5461 Winnetka Ave.,Woodland Hills,Los Angeles,91364-2548,Y,Locally funded,34.16939,-118.57103000000001,High Schools (Public),HS,9-12,9,12
19647331995836,Palisades Charter High,Los Angeles Unified,15777 Bowdoin St.,Pacific Palisades,Los Angeles,90272-3523,Y,Directly funded,34.044632,-118.5333,High Schools (Public),HS,9-12,9,12
19647331996610,Los Angeles Leadership Academy,Los Angeles Unified,234 East Avenue 33,Los Angeles,Los Angeles,90031-1937,Y,Directly funded,34.083354,-118.21081000000001,K-12 Schools (Public),ELEMHIGH,6-12,6,12
19647336015986,Beckford Charter for Enriched Studies,Los Angeles Unified,19130 Tulsa St.,Northridge,Los Angeles,91326-2645,Y,Locally funded,34.268005,-118.54978,Elementary Schools (Public),ELEM,K-5,K,5
19647336016240,Calabash Charter Academy,Los Angeles Unified,23055 Eugene St.,Woodland Hills,Los Angeles,91364-3723,Y,Locally funded,34.157826,-118.62951000000001,Elementary Schools (Public),ELEM,K-5,K,5
19647336016257,Calahan Community Charter,Los Angeles Unified,18722 Knapp St.,Northridge,Los Angeles,91324-3027,Y,Locally funded,34.238116,-118.54093999999999,Elementary Schools (Public),ELEM,K-5,K,5
19647336016265,Calvert Charter for Enriched Studies,Los Angeles Unified,19850 Delano St.,Woodland Hills,Los Angeles,91367-3816,Y,Locally funded,34.182288,-118.56425,Elementary Schools (Public),ELEM,K-5,K,5
19647336016323,Canyon Charter Elementary,Los Angeles Unified,421 Entrada Dr.,Santa Monica,Los Angeles,90402-1303,Y,Locally funded,34.031257000000004,-118.51229,Elementary Schools (Public),ELEM,K-5,K,5
19647336016356,Carpenter Community Charter,Los Angeles Unified,3909 Carpenter Ave.,Studio City,Los Angeles,91604-3732,Y,Locally funded,34.141481,-118.3917,Elementary Schools (Public),ELEM,K-5,K,5
19647336016422,Chandler Learning Academy,Los Angeles Unified,14030 Weddington St.,Sherman Oaks,Los Angeles,91401-5753,Y,Locally funded,34.165735999999995,-118.439,Elementary Schools (Public),ELEM,K-5,K,5
19647336016562,Colfax Charter Elementary,Los Angeles Unified,11724 Addison St.,North Hollywood,Los Angeles,91607-3202,Y,Locally funded,34.161207,-118.38841000000001,Elementary Schools (Public),ELEM,K-5,K,5
19647336016703,Darby Avenue Charter,Los Angeles Unified,10818 Darby Ave.,Northridge,Los Angeles,91326-3112,Y,Locally funded,34.266413,-118.53352,Elementary Schools (Public),ELEM,K-5,K,5
19647336016729,Dearborn Elementary Charter Academy,Los Angeles Unified,9240 Wish Ave.,Northridge,Los Angeles,91325-2533,Y,Locally funded,34.238678,-118.50833999999999,Elementary Schools (Public),ELEM,K-5,K,5
19647336016778,Dixie Canyon Community Charter,Los Angeles Unified,4220 Dixie Canyon Ave.,Sherman Oaks,Los Angeles,91423-3904,Y,Locally funded,34.147085,-118.4248,Elementary Schools (Public),ELEM,K-5,K,5
19647336016869,El Oro Way Charter For Enriched Studies,Los Angeles Unified,12230 El Oro Way,Granada Hills,Los Angeles,91344-1600,Y,Locally funded,34.293282,-118.50511000000002,Elementary Schools (Public),ELEM,K-5,K,5
19647336016901,Emelita Academy Charter,Los Angeles Unified,17931 Hatteras St.,Encino,Los Angeles,91316-1037,Y,Locally funded,34.176518,-118.5231,Elementary Schools (Public),ELEM,K-5,K,5
19647336016935,Encino Charter Elementary,Los Angeles Unified,16941 Addison St.,Encino,Los Angeles,91316-3433,Y,Locally funded,34.161765,-118.50206999999999,Elementary Schools (Public),ELEM,K-5,K,5
19647336017016,Fenton Avenue Charter,Los Angeles Unified,11828 Gain St.,Lake View Terrace,Los Angeles,91342-7132,Y,Directly funded,34.280736,-118.39092,Elementary Schools (Public),ELEM,3-5,3,5
19647336017339,Granada Community Charter,Los Angeles Unified,17170 Tribune St.,Granada Hills,Los Angeles,91344-4899,Y,Locally funded,34.267184,-118.50773000000001,Elementary Schools (Public),ELEM,K-5,K,5
19647336017438,Hamlin Charter Academy,Los Angeles Unified,22627 Hamlin St.,West Hills,Los Angeles,91307-3603,Y,Locally funded,34.189060999999995,-118.61979,Elementary Schools (Public),ELEM,K-5,K,5
19647336017529,Haynes Charter For Enriched Studies,Los Angeles Unified,6624 Lockhurst Dr.,West Hills,Los Angeles,91307-3135,Y,Locally funded,34.190529,-118.64894,Elementary Schools (Public),ELEM,K-5,K,5
19647336017693,Justice Street Academy Charter,Los Angeles Unified,23350 Justice St.,West Hills,Los Angeles,91304-4402,Y,Locally funded,34.216099,-118.63547,Elementary Schools (Public),ELEM,K-5,K,5
19647336017701,Kenter Canyon Elementary Charter,Los Angeles Unified,645 North Kenter Ave.,Los Angeles,Los Angeles,90049-1946,Y,Locally funded,34.070178000000006,-118.48852,Elementary Schools (Public),ELEM,K-5,K,5
19647336017743,Knollwood Preparatory Academy,Los Angeles Unified,11822 Gerald Ave.,Granada Hills,Los Angeles,91344-2849,Y,Locally funded,34.284892,-118.4938,Elementary Schools (Public),ELEM,K-5,K,5
19647336017891,Lockhurst Drive Charter Elementary,Los Angeles Unified,6170 Lockhurst Dr.,Woodland Hills,Los Angeles,91367-1204,Y,Locally funded,34.182935,-118.64773999999998,Elementary Schools (Public),ELEM,K-5,K,5
19647336018063,Marquez Charter,Los Angeles Unified,16821 Marquez Ave.,Pacific Palisades,Los Angeles,90272-3243,Y,Locally funded,34.045794,-118.54733999999999,Elementary Schools (Public),ELEM,K-5,K,5
19647336018204,Montague Charter Academy,Los Angeles Unified,13000 Montague St.,Pacoima,Los Angeles,91331-4146,Y,Directly funded,34.244465000000005,-118.41501000000001,Elementary Schools (Public),ELEM,K-5,K,5
19647336018287,Nestle Avenue Charter,Los Angeles Unified,5060 Nestle Ave.,Tarzana,Los Angeles,91356-4350,Y,Locally funded,34.162196,-118.53079,Elementary Schools (Public),ELEM,K-5,K,5
19647336018634,Palisades Charter Elementary,Los Angeles Unified,800 Via de La Paz,Pacific Palisades,Los Angeles,90272-3617,Y,Locally funded,34.044808,-118.52762,Elementary Schools (Public),ELEM,K-5,K,5
19647336018642,Pacoima Charter Elementary,Los Angeles Unified,11016 Norris Ave.,Pacoima,Los Angeles,91331-2569,Y,Directly funded,34.270632,-118.41638,Elementary Schools (Public),ELEM,K-5,K,5
19647336018725,Plainview Academic Charter Academy,Los Angeles Unified,10819 Plainview Ave.,Tujunga,Los Angeles,91042-1633,Y,Locally funded,34.265498,-118.29798000000001,Elementary Schools (Public),ELEM,K-5,K,5
19647336018774,Pomelo Community Charter,Los Angeles Unified,7633 March Ave.,West Hills,Los Angeles,91304-5233,Y,Locally funded,34.209319,-118.64214,Elementary Schools (Public),ELEM,K-5,K,5
19647336018923,Riverside Drive Charter,Los Angeles Unified,13061 Riverside Dr.,Sherman Oaks,Los Angeles,91423-2128,Y,Locally funded,34.15768,-118.41753,Elementary Schools (Public),ELEM,K-5,K,5
19647336019079,Santa Monica Boulevard Community Charter,Los Angeles Unified,1022 North Van Ness Ave.,Los Angeles,Los Angeles,90038-3252,Y,Directly funded,34.089366,-118.31566000000001,Elementary Schools (Public),ELEM,K-6,K,6
19647336019111,Serrania Avenue Charter For Enriched Studies,Los Angeles Unified,5014 Serrania Ave.,Woodland Hills,Los Angeles,91364-3303,Y,Locally funded,34.161207,-118.58831,Elementary Schools (Public),ELEM,K-5,K,5
19647336019186,Sherman Oaks Elementary Charter,Los Angeles Unified,14755 Greenleaf St.,Sherman Oaks,Los Angeles,91403-4127,Y,Locally funded,34.149449,-118.45527,Elementary Schools (Public),ELEM,K-5,K,5
19647336019392,Superior Street Elementary,Los Angeles Unified,9756 Oso Ave.,Chatsworth,Los Angeles,91311-5359,Y,Locally funded,34.24772,-118.57533000000001,Elementary Schools (Public),ELEM,K-5,K,5
19647336019525,Topanga Elementary Charter,Los Angeles Unified,22075 Topanga School Rd.,Topanga,Los Angeles,90290-3835,Y,Locally funded,34.091819,-118.60371,Elementary Schools (Public),ELEM,K-5,K,5
19647336019533,Topeka Charter School For Advanced Studies,Los Angeles Unified,9815 Topeka Dr.,Northridge,Los Angeles,91324-1849,Y,Locally funded,34.248427,-118.54576000000002,Elementary Schools (Public),ELEM,K-5,K,5
19647336019673,Van Gogh Charter,Los Angeles Unified,17160 Van Gogh St.,Granada Hills,Los Angeles,91344-1217,Y,Locally funded,34.3057,-118.50533999999999,Elementary Schools (Public),ELEM,K-5,K,5
19647336019715,Vaughn Next Century Learning Center,Los Angeles Unified,13330 Vaughn St.,San Fernando,Los Angeles,91340-2216,Y,Directly funded,34.279674,-118.42093999999999,K-12 Schools (Public),ELEMHIGH,K-12,K,12
19647336019855,Welby Way Charter Elementary School And Gifted-High Ability Magnet,Los Angeles Unified,23456 Welby Way,West Hills,Los Angeles,91307-3328,Y,Locally funded,34.192177,-118.63795,Elementary Schools (Public),ELEM,K-5,K,5
19647336019939,Westwood Charter Elementary,Los Angeles Unified,2050 Selby Ave.,Los Angeles,Los Angeles,90025-6311,Y,Locally funded,34.047585999999995,-118.43078,Elementary Schools (Public),ELEM,K-5,K,5
19647336019954,Wilbur Charter For Enriched Academics,Los Angeles Unified,5213 Crebs Ave.,Tarzana,Los Angeles,91356-4010,Y,Locally funded,34.165335999999996,-118.54423,Elementary Schools (Public),ELEM,K-5,K,5
19647336020036,Woodlake Elementary Community Charter,Los Angeles Unified,23231 Hatteras St.,Woodland Hills,Los Angeles,91367-3119,Y,Locally funded,34.175591,-118.63276,Elementary Schools (Public),ELEM,K-5,K,5
19647336020044,Woodland Hills Elementary Charter For Enriched Studies,Los Angeles Unified,22201 San Miguel St.,Woodland Hills,Los Angeles,91364-3039,Y,Locally funded,34.158722999999995,-118.60991999999999,Elementary Schools (Public),ELEM,K-5,K,5
19647336057988,Emerson Community Charter,Los Angeles Unified,1650 Selby Ave.,Los Angeles,Los Angeles,90024-5716,Y,Locally funded,34.053268,-118.43598,Intermediate/Middle Schools (Public),INTMIDJR,6-8,6,8
19647336058150,Robert A. Millikan Affiliated Charter & Performing Arts Magnet Middle,Los Angeles Unified,5041 Sunnyslope Ave.,Sherman Oaks,Los Angeles,91423-1445,Y,Locally funded,34.162385,-118.42693,Intermediate/Middle Schools (Public),INTMIDJR,6-8,6,8
19647336058267,Paul Revere Charter Middle,Los Angeles Unified,1450 Allenford Ave.,Los Angeles,Los Angeles,90049-3614,Y,Locally funded,34.054782,-118.49585,Intermediate/Middle Schools (Public),INTMIDJR,6-8,6,8
19647336061477,George Ellery Hale Charter Academy,Los Angeles Unified,23830 Califa St.,Woodland Hills,Los Angeles,91367-2922,Y,Locally funded,34.177799,-118.6453,Intermediate/Middle Schools (Public),INTMIDJR,6-8,6,8
19647336061543,Alfred B. Nobel Charter Middle,Los Angeles Unified,9950 Tampa Ave.,Northridge,Los Angeles,91324-1142,Y,Locally funded,34.250954,-118.5535,Intermediate/Middle Schools (Public),INTMIDJR,6-8,6,8
19647336071435,Castlebay Lane Charter,Los Angeles Unified,19010 Castlebay Ln.,Porter Ranch,Los Angeles,91326-1005,Y,Locally funded,34.293419,-118.54749,Elementary Schools (Public),ELEM,K-5,K,5
19647336094726,Community Magnet Charter Elementary,Los Angeles Unified,11301 Bellagio Rd.,Los Angeles,Los Angeles,90049-1705,Y,Locally funded,34.08183,-118.46224,Elementary Schools (Public),ELEM,K-5,K,5
19647336097927,Open Charter Magnet,Los Angeles Unified,5540 West 77th St.,Los Angeles,Los Angeles,90045-3214,Y,Locally funded,33.968507,-118.3778,Elementary Schools (Public),ELEM,K-5,K,5
19647336112536,Accelerated,Los Angeles Unified,4000 South Main St.,Los Angeles,Los Angeles,90037-1022,Y,Directly funded,34.010434000000004,-118.27393000000001,Elementary Schools (Public),ELEM,K-8,K,8
19647336114912,Watts Learning Center,Los Angeles Unified,310 West 95th St.,Los Angeles,Los Angeles,90003-4012,Y,Directly funded,33.950044,-118.27848999999999,Elementary Schools (Public),ELEM,K-5,K,5
19647336116750,PUC Community Charter Middle and PUC Community Charter Early College High,Los Angeles Unified,11500 Eldridge Ave.,Lake View Terrace,Los Angeles,91342-6522,Y,Directly funded,34.280097,-118.38238,K-12 Schools (Public),ELEMHIGH,6-12,6,12
19647336117048,ICEF View Park Preparatory Charter,Los Angeles Unified,5311 South Crenshaw Blvd.,Los Angeles,Los Angeles,90043-1809,Y,Directly funded,33.994362,-118.33135,Elementary Schools (Public),ELEM,K-5,K,5
19647336117667,Camino Nuevo Charter Academy,Los Angeles Unified,697 South Burlington Ave.,Los Angeles,Los Angeles,90057-3743,Y,Directly funded,34.055523,-118.27358000000001,Elementary Schools (Public),ELEM,K-8,K,8
19647336119044,Multicultural Learning Center,Los Angeles Unified,7510 DeSoto Ave.,Canoga Park,Los Angeles,91303-1430,Y,Directly funded,34.206694,-118.58841000000001,Elementary Schools (Public),ELEM,K-8,K,8
19647336119531,CHIME Institute's Schwarzenegger Community,Los Angeles Unified,19722 Collier St.,Woodland Hills,Los Angeles,91364-3618,Y,Directly funded,34.165765,-118.56288,Elementary Schools (Public),ELEM,K-8,K,8
19647336119903,Downtown Value,Los Angeles Unified,950 West Washington Blvd.,Los Angeles,Los Angeles,90015-3312,Y,Directly funded,34.037592,-118.27922,Elementary Schools (Public),ELEM,K-8,K,8
19647336120471,Puente Charter,Los Angeles Unified,501 South Boyle Ave.,Los Angeles,Los Angeles,90033-3816,Y,Directly funded,34.041422,-118.21956999999999,Elementary Schools (Public),ELEM,K,K,
19647336120489,Para Los Niños Charter,Los Angeles Unified,1617 East Seventh St.,Los Angeles,Los Angeles,90021-1207,Y,Directly funded,34.035154,-118.23695,Elementary Schools (Public),ELEM,K-5,K,5
19647336121081,ICEF View Park Preparatory Charter Middle,Los Angeles Unified,5311 Crenshaw Blvd.,Los Angeles,Los Angeles,90043-1809,Y,Directly funded,33.994362,-118.33135,Intermediate/Middle Schools (Public),INTMIDJR,6-8,6,8
19648570112714,Antelope Valley Learning Academy,Palmdale Elementary,37212 47th St. East,Palmdale,Los Angeles,93550-4421,Y,Directly funded,34.55859,-118.04359,K-12 Schools (Public),ELEMHIGH,K-12,K,12
19648570125377,Palmdale Aerospace Academy,Palmdale Elementary,3300 East Palmdale Blvd.,Palmdale,Los Angeles,93550-5036,Y,Directly funded,34.580207,-118.07143,K-12 Schools (Public),HS,7-12,7,12
19648576119580,Guidance Charter,Palmdale Elementary,37230 37th St. East,Palmdale,Los Angeles,93550-2542,Y,Directly funded,34.558313,-118.06257,K-12 Schools (Public),ELEMHIGH,K-12,K,12
19648810113464,Aveson Global Leadership Academy,Pasadena Unified,575 West Altadena Dr.,Altadena,Los Angeles,91001-4203,Y,Directly funded,34.198516999999995,-118.15838000000001,K-12 Schools (Public),ELEMHIGH,6-12,6,12
19648810113472,Aveson School of Leaders,Pasadena Unified,1919 East Pinecrest Dr.,Altadena,Los Angeles,91001-2116,Y,Directly funded,34.191653,-118.11188,Elementary Schools (Public),ELEMHIGH,K-10,K,10
19648810113894,Pasadena Rosebud Academy,Pasadena Unified,3544 North Canon Blvd.,Altadena,Los Angeles,91001-4008,Y,Directly funded,34.204592,-118.13566999999999,Elementary Schools (Public),ELEM,K-6,K,6
19648810118075,Learning Works,Pasadena Unified,90 North Daisy Ave.,Pasadena,Los Angeles,91107-3704,Y,Directly funded,34.147548,-118.09298999999999,High Schools (Public),HS,7-12,7,12
19649070115170,School of Extended Educational Options,Pomona Unified,"1460 East Holt Ave., Ste. 100",Pomona,Los Angeles,91767-5862,Y,Locally funded,34.061799,-117.71965,High Schools (Public),HS,8-12,8,12
19649076021984,La Verne Science and Technology Charter,Pomona Unified,250 West La Verne Ave.,Pomona,Los Angeles,91767-2375,Y,Locally funded,34.08679,-117.75332,Elementary Schools (Public),ELEM,K-6,K,6
19650940112706,California Virtual Academy @ Los Angeles,West Covina Unified,50 Moreland Rd.,Simi Valley,Los Angeles,93065-1659,Y,Directly funded,34.275868,-118.79798000000001,K-12 Schools (Public),ELEMHIGH,K-12,K,12
19650946023527,San Jose Charter Academy,West Covina Unified,2021 West Alwood St.,West Covina,Los Angeles,91790-3259,Y,Directly funded,34.061816,-117.96033,Elementary Schools (Public),ELEM,K-8,K,8
19651360114439,Mission View Public,William S. Hart Union High,26334 Citrus St.,Santa Clarita,Los Angeles,91355-5323,Y,Directly funded,34.415381,-118.55293999999999,K-12 Schools (Public),ELEMHIGH,K-12,K,12
19651360117234,Santa Clarita Valley International,William S. Hart Union High,"28060 Hasley Canyon Rd., Ste. 200",Castaic,Los Angeles,91384-4577,Y,Directly funded,34.45363,-118.62272,K-12 Schools (Public),ELEMHIGH,K-12,K,12
19651361996263,Opportunities for Learning - Santa Clarita,William S. Hart Union High,27616 Newhall Ranch Rd.,Valencia,Los Angeles,91355-3482,Y,Directly funded,34.438245,-118.56371999999999,High Schools (Public),HS,7-12,7,12
19734370115725,Lifeline Education Charter,Compton Unified,225 South Santa Fe Ave.,Compton,Los Angeles,90221-3240,Y,Directly funded,33.894634,-118.21607,K-12 Schools (Public),ELEMHIGH,K-12,K,12
19734370132845,Today's Fresh Start-Compton,Compton Unified,4476 Crenshaw Blvd.,Los Angeles,Los Angeles,90043-1208,Y,Directly funded,34.002873,-118.33028999999999,Elementary Schools (Public),ELEM,K-8,K,8
19734370134338,Celerity Achernar Charter,Compton Unified,310 East El Segundo Blvd.,Compton,Los Angeles,90222-2315,Y,Directly funded,33.915886,-118.22258000000001,Elementary Schools (Public),ELEM,K-8,K,8
19734520120600,iQ Academy California-Los Angeles,Rowland Unified,50 Moreland Rd.,Simi Valley,Los Angeles,93065-1659,Y,Directly funded,34.275868,-118.79798000000001,K-12 Schools (Public),ELEMHIGH,K-12,K,12
19752911996016,Options for Youth San Gabriel,San Gabriel Unified,405 South San Gabriel Blvd. Ste. A,San Gabriel,Los Angeles,91776-1966,Y,Directly funded,34.097642,-118.09127,High Schools (Public),HS,7-12,7,12
19753090127100,Assurance Learning Academy,Acton-Agua Dulce Unified,"43145 Business Center, Ste. 102-103",Lancaster,Los Angeles,93535-4564,Y,Directly funded,34.666971000000004,-118.1305,K-12 Schools (Public),HS,9-12,9,12
19753090129411,SCALE Leadership Academy,Acton-Agua Dulce Unified,32248 Crown Valley Rd.,Acton,Los Angeles,93510-2620,Y,Directly funded,34.472691999999995,-118.19658000000001,Intermediate/Middle Schools (Public),ELEMHIGH,K-12,K,12
19753090129742,Inspire Charter,Acton-Agua Dulce Unified,32248 Crown Valley Rd.,Acton,Los Angeles,93510-1416,Y,Directly funded,34.472691999999995,-118.19658000000001,K-12 Schools (Public),ELEMHIGH,K-12,K,12
19753090130955,Valiant Academy of Los Angeles,Acton-Agua Dulce Unified,32248 Crown Valley Rd.,Acton,Los Angeles,93510-4548,Y,Directly funded,34.472691999999995,-118.19658000000001,K-12 Schools (Public),ELEMHIGH,K-12,K,12
19753090131201,"Albert Einstein Academy for Letters, Arts & Sciences - Agua Dulce Partnership Academy",Acton-Agua Dulce Unified,11311 Frascati St.,Agua Dulce,Los Angeles,91390-4840,Y,Directly funded,34.487359999999995,-118.33413999999999,Elementary Schools (Public),ELEM,K-6,K,6
19753090131383,SIATech Academy South,Acton-Agua Dulce Unified,634 South Spring St.,Los Angeles,Los Angeles,90014-3921,Y,Directly funded,34.044902,-118.25133000000001,High Schools (Public),HS,11-12,11,12
19753090131540,Method Schools K-8,Acton-Agua Dulce Unified,317 East Foothill Blvd.,Arcadia,Los Angeles,91006-1848,Y,Directly funded,34.151357,-118.02213,Elementary Schools (Public),ELEM,1-8,1,8
19753090131557,Method Schools High,Acton-Agua Dulce Unified,317 East Foothill Blvd.,Arcadia,Los Angeles,91006-1848,Y,Directly funded,34.151357,-118.02213,High Schools (Public),HS,9-12,9,12
19753090131987,iLEAD Hybrid,Acton-Agua Dulce Unified,3720 Sierra Hwy. Ste. A,Acton,Los Angeles,93510-0500,Y,Directly funded,34.492805,-118.19593,K-12 Schools (Public),ELEMHIGH,K-12,K,12
19753090132191,"Albert Einstein Academy for Letters, Arts and Sciences-STEAM",Acton-Agua Dulce Unified,25443 Orchard Village Rd.,Valencia,Los Angeles,91355-2935,Y,Directly funded,34.390494,-118.5491,Elementary Schools (Public),ELEM,K-6,K,6
19753090132654,Community Collaborative Charter,Acton-Agua Dulce Unified,32248 Crown Valley Rd.,Acton,Los Angeles,93510-2620,Y,Directly funded,34.472932,-118.19685,K-12 Schools (Public),ELEMHIGH,K-12,K,12
19753090133231,"Albert Einstein Academy for Letters, Arts & Sciences - Odyssey",Acton-Agua Dulce Unified,8844 Burton Way,Beverly Hills,Los Angeles,90211-1644,Y,Directly funded,34.071847,-118.38524,K-12 Schools (Public),ELEM,K-6,K,6
19753090134585,Pathways Academy Charter Adult Education,Acton-Agua Dulce Unified,"1782 La Costa Meadows Drive, Ste. 102",San Marcos,Los Angeles,92078-9102,Y,Directly funded,33.104624,-117.21871000000002,High Schools (Public),HS,12,12,
19753090134619,Empower Generations,Acton-Agua Dulce Unified,2110 West Ave. K,Lancaster,Los Angeles,93536-5218,Y,Directly funded,34.674411,-118.16852,High Schools (Public),HS,9-12,9,12
19753090135145,Compass Charter Schools of Los Angeles,Acton-Agua Dulce Unified,"850 Hampshire Rd., Ste. P",Thousand Oaks,Los Angeles,91361-6004,Y,Directly funded,34.155695,-118.83089,K-12 Schools (Public),ELEMHIGH,K-12,K,12
19753090136531,iLEAD Online,Acton-Agua Dulce Unified,3720 Sierra Hwy. Ste. A,Acton,Los Angeles,93510-0500,Y,Directly funded,34.492805,-118.19593,K-12 Schools (Public),ELEMHIGH,,,
19753090136648,Options for Youth-Acton,Acton-Agua Dulce Unified,"17216 Slover Ave., Ste. L-102",Fontana,Los Angeles,92337-7580,Y,Directly funded,34.063466,-117.42968,High Schools (Public),HS,,,
19756636120158,New West Charter,SBE - New West Charter,1905 Armacost Ave.,Los Angeles,Los Angeles,90025-5210,Y,Directly funded,34.035653,-118.45535,K-12 Schools (Public),ELEMHIGH,6-12,6,12
19756971996693,School of Arts and Enterprise,SBE - The School of Arts and Enterprise,295 North Garey Ave.,Pomona,Los Angeles,91767-5429,Y,Directly funded,34.060297,-117.75028,K-12 Schools (Public),ELEMHIGH,6-12,6,12
19765470118760,Barack Obama Charter,SBE - Barack Obama Charter,13305 South San Pedro St.,Los Angeles,Los Angeles,90061-2254,Y,Directly funded,33.910790000000006,-118.27033,Elemen Schools In 1 School Dist. (Public),ELEM,K-5,K,5
19768690119016,Da Vinci Science,Wiseburn Unified,201 N. Douglas St.,El Segundo,Los Angeles,90245-4637,Y,Directly funded,33.917908000000004,-118.38408000000001,High Schools (Public),HS,9-12,9,12
19768690119636,Da Vinci Design,Wiseburn Unified,12501 Isis Ave.,Hawthorne,Los Angeles,90250-4149,Y,Directly funded,33.919064,-118.37438,High Schools (Public),HS,9-12,9,12
19768690128728,Da Vinci Innovation Academy,Wiseburn Unified,13500 Aviation Blvd.,Hawthorne,Los Angeles,90250-6462,Y,Directly funded,33.908788,-118.37758999999998,Elementary Schools (Public),ELEM,K-8,K,8
19768690131128,Da Vinci Communications High,Wiseburn Unified,12495 Isis Ave.,Hawthorne,Los Angeles,90250-4147,Y,Directly funded,33.919128,-118.37438,High Schools (Public),HS,9-12,9,12
19768690135988,RISE High,Wiseburn Unified,13500 Aviation Blvd.,Hawthorne,Los Angeles,90250-6462,Y,Directly funded,33.908904,-118.37765,High Schools (Public),HS,,,
19768850132928,Anahuacalmecac International University Preparatory of North America,SBE - Anahuacalmecac International University Preparatory of North America,4736 Huntington Dr. South,Los Angeles,Los Angeles,90032-1942,Y,Directly funded,34.085085,-118.18153999999998,K-12 Schools (Public),ELEMHIGH,K-12,K,12
19769680109926,Academia Avance Charter,SBE - Academia Avance Charter,115 North Avenue 53,Highland Park,Los Angeles,90042-4005,Y,Directly funded,34.107288,-118.19842,K-12 Schools (Public),ELEMHIGH,6-12,6,12
19769920133900,Prepa Tec Los Angeles High,SBE - Prepa Tec Los Angeles High,4210 East Gage St.,Bell,Los Angeles,90201-1213,Y,Directly funded,33.978427,-118.19221,High Schools In 1 School Dist. (Public),HS,9,9,
19770730135947,Celerity Rolas Charter,SBE - Celerity Rolas,1495 Colorado Blvd.,Los Angeles,Los Angeles,90041-2340,Y,Directly funded,34.139635,-118.19738000000001,Elemen Schools In 1 School Dist. (Public),ELEM,,,
19770810135954,Celerity Himalia Charter,SBE - Celerity Himalia,5100 South Broadway Ave.,Los Angeles,Los Angeles,90037-3837,Y,Directly funded,33.996155,-118.27793999999999,Elemen Schools In 1 School Dist. (Public),ELEM,,,
